#aV2006 11  1  0  0   .00000000      96 DD+AD WGS84 FIT  NGA
## 1399 259200.00000000   900.00000000 54040  .0000000000000
+   30     1  2  3  4  5  6  7  8  9 10 11 13 14 15 16 17 18
+         19 20 21 22 23 24 25 26 27 28 29 30 31  0  0  0  0
+          0  0  0  0  0  0  0  0  0  0  0  0  0  0  0  0  0
+          0  0  0  0  0  0  0  0  0  0  0  0  0  0  0  0  0
+          0  0  0  0  0  0  0  0  0  0  0  0  0  0  0  0  0
++         0  0  0  0  0  0  0  0  0  0  0  0  0  0  0  0  0
++         0  0  0  0  0  0  0  0  0  0  0  0  0  0  0  0  0
++         0  0  0  0  0  0  0  0  0  0  0  0  0  0  0  0  0
++         0  0  0  0  0  0  0  0  0  0  0  0  0  0  0  0  0
++         0  0  0  0  0  0  0  0  0  0  0  0  0  0  0  0  0
%c cc cc ccc ccc cccc cccc cccc cccc ccccc ccccc ccccc ccccc
%c cc cc ccc ccc cccc cccc cccc cccc ccccc ccccc ccccc ccccc
%f  0.0000000  0.000000000  0.00000000000  0.000000000000000
%f  0.0000000  0.000000000  0.00000000000  0.000000000000000
%i    0    0    0    0      0      0      0      0         0
%i    0    0    0    0      0      0      0      0         0
/*      NGA, ST. LOUIS,MO.                                  
/*   EPHEMERIS COMPUTED FROM  3 DAYS OF DATA                
/* CCCCCCCCCCCCCCCCCCCCCCCCCCCCCCCCCCCCCCCCCCCCCCCCCCCCCCCCC
/* CCCCCCCCCCCCCCCCCCCCCCCCCCCCCCCCCCCCCCCCCCCCCCCCCCCCCCCCC
*  2006 11  1 11 15   .00000000                                                 
P  1  -2229.256556 -14515.012711  22334.120373     86.182594                    
V  1  27356.124339  -4849.101535   -489.369865       .023675                    
P  2  11022.704750  22145.255652   9747.638175     50.419075                    
V  2 -10620.174550  -7419.372511  27941.717755       .036690                    
P  3  -7885.968040 -14205.683799 -21226.029713    357.939736                    
V  3  25227.566025  -8522.722860  -3375.996454       .356179                    
P  4  -1784.610538  18384.388950  18907.754203    331.246815                    
V  4 -17462.314859 -16945.515911  15146.128038       .045712                    
P  5  14564.006142   5991.819184  21172.359962    364.056945                    
V  5  -6256.227814  26769.517627  -3082.406769      -.019890                    
P  6  25720.832701  -6745.586238    -36.747588    564.878730                    
V  6   1174.134575   3434.464751  31110.445925      -.113335                    
P  7  12342.245331 -16310.919755 -16605.348868    503.943985                    
V  7  21621.882819  -3839.087458  19346.050417      -.069367                    
P  8 -10089.429866  11161.375717 -21998.045692    -84.883985                    
V  8 -18090.158329 -20839.042577  -2712.388882      -.011253                    
P  9  20858.207551  15482.983951   5545.296407     42.738999                    
V  9   3640.405657   7281.873581 -30598.307657       .016816                    
P 10   3245.883831  21780.184856 -14716.105774     92.096281                    
V 10  -7872.551910  16995.612976  23875.663007       .007199                    
P 11 -23220.487282 -10874.252805   7362.965618    357.877933                    
V 11  -4766.432132  -9269.875260 -28127.272968       .017637                    
P 13 -25612.104208   6554.292361  -2407.865004    108.650936                    
V 13  -3226.765354  -1200.180152  32298.410626       .035580                    
P 14  14815.373972 -14372.463677  16749.945415     -2.120542                    
V 14  20916.761026  -3014.018201 -21254.995321       .009167                    
P 15   9480.950324 -12526.925757 -21502.110110     40.194486                    
V 15  17314.688288  20812.557440  -4946.612516       .504252                    
P 16   -702.165829 -23820.204440 -11521.313844     87.563656                    
V 16   6909.227561 -13308.197123  27027.936417       .036358                    
P 17 -14902.482202  14858.443978  16134.400022     91.076920                    
V 17 -20482.982653   2512.843312 -21331.135582      -.011894                    
P 18  16447.944164 -13804.956374 -15289.205644   -251.915308                    
V 18  -4485.735886  19416.757579 -22488.840258      -.005663                    
P 19 -17613.900564  -9545.571423 -17378.548050     29.893395                    
V 19  21687.904460  -5214.039028 -18927.888924       .037369                    
P 20 -15279.938933  -2081.052158  21535.889061    -21.903877                    
V 20   7666.701569 -26488.710382   2899.758082       .000591                    
P 21  15627.491017  -5104.690322 -20858.813988     59.600526                    
V 21  16953.650213  20591.120136   7084.286943       .015515                    
P 22  11837.008750 -23345.872201  -4268.140039    146.238591                    
V 22    905.039714   6335.633044 -30980.910496       .027339                    
P 23 -25084.578857   -619.422026   8916.861362    139.631141                    
V 23  10614.518647  -4629.365911  29072.051885       .006368                    
P 24   2985.546778  21089.247280  15916.886526     48.817686                    
V 24 -14350.872740 -13988.266514  21795.876692       .031749                    
P 25  -5434.098045 -20430.620645  16384.327041    397.452683                    
V 25  16278.386823  12016.941281  21046.578896       .084406                    
P 26  17167.104013   9169.995514 -18743.609274   -317.480682                    
V 26 -22154.331148   4877.412198 -17752.436967      -.159386                    
P 27 -17138.093600   2539.940177 -19598.682870     75.778503                    
V 27 -18103.009839 -18929.997006  12681.862176       .018965                    
P 28 -13095.758775  21317.731618  -8068.442221     15.271914                    
V 28    596.728778 -11142.172766 -29670.592820      -.008893                    
P 29  13197.869320  10681.872158 -20283.322062    148.198246                    
V 29 -25294.524721   6493.404134 -12593.888176       .493109                    
P 30  16387.400235  -8246.236605  18865.191171     15.056211                    
V 30  -4869.807978  24257.852364  14712.114575       .011663                    
P 31  -2733.266531 -20397.770060  16957.680851    -56.870146                    
V 31  15727.799281  14311.938487  20011.749952       .115393                    
EOF
